<?xml version="1.0" encoding="UTF-8"?>
<ndm xmlns:xsi="http://www.w3.org/2001/XMLSchema-instance" xsi:noNamespaceSchemaLocation="https://sanaregistry.org/r/ndmxml_unqualified/ndmxml-2.0.0-master-2.0.xsd">
<omm id="CCSDS_OMM_VERS" version="2.0">
<header><CREATION_DATE/><ORIGINATOR/></header><body><segment><metadata><OBJECT_NAME>ONEWEB-0144</OBJECT_NAME><OBJECT_ID>2020-100AJ</OBJECT_ID><CENTER_NAME>EARTH</CENTER_NAME><REF_FRAME>TEME</REF_FRAME><TIME_SYSTEM>UTC</TIME_SYSTEM><MEAN_ELEMENT_THEORY>SGP4</MEAN_ELEMENT_THEORY></metadata><data><meanElements><EPOCH>2024-10-03T13:50:01.802400</EPOCH><MEAN_MOTION>13.12443110</MEAN_MOTION><ECCENTRICITY>.0001864</ECCENTRICITY><INCLINATION>87.8847</INCLINATION><RA_OF_ASC_NODE>114.4491</RA_OF_ASC_NODE><ARG_OF_PERICENTER>75.8972</ARG_OF_PERICENTER><MEAN_ANOMALY>284.2364</MEAN_ANOMALY></meanElements><tleParameters><EPHEMERIS_TYPE>0</EPHEMERIS_TYPE><CLASSIFICATION_TYPE>U</CLASSIFICATION_TYPE><NORAD_CAT_ID>47290</NORAD_CAT_ID><ELEMENT_SET_NO>999</ELEMENT_SET_NO><REV_AT_EPOCH>18303</REV_AT_EPOCH><BSTAR>-.92273E-3</BSTAR><MEAN_MOTION_DOT>-.319E-5</MEAN_MOTION_DOT><MEAN_MOTION_DDOT>0</MEAN_MOTION_DDOT></tleParameters></data></segment></body></omm>
<omm id="CCSDS_OMM_VERS" version="2.0">
<header><CREATION_DATE/><ORIGINATOR/></header><body><segment><metadata><OBJECT_NAME>ONEWEB-0145</OBJECT_NAME><OBJECT_ID>2020-100AK</OBJECT_ID><CENTER_NAME>EARTH</CENTER_NAME><REF_FRAME>TEME</REF_FRAME><TIME_SYSTEM>UTC</TIME_SYSTEM><MEAN_ELEMENT_THEORY>SGP4</MEAN_ELEMENT_THEORY></metadata><data><meanElements><EPOCH>2024-10-03T13:07:59.669760</EPOCH><MEAN_MOTION>13.12443836</MEAN_MOTION><ECCENTRICITY>.000174</ECCENTRICITY><INCLINATION>87.8851</INCLINATION><RA_OF_ASC_NODE>114.4797</RA_OF_ASC_NODE><ARG_OF_PERICENTER>79.7676</ARG_OF_PERICENTER><MEAN_ANOMALY>280.3649</MEAN_ANOMALY></meanElements><tleParameters><EPHEMERIS_TYPE>0</EPHEMERIS_TYPE><CLASSIFICATION_TYPE>U</CLASSIFICATION_TYPE><NORAD_CAT_ID>47291</NORAD_CAT_ID><ELEMENT_SET_NO>999</ELEMENT_SET_NO><REV_AT_EPOCH>18322</REV_AT_EPOCH><BSTAR>.12079E-2</BSTAR><MEAN_MOTION_DOT>.447E-5</MEAN_MOTION_DOT><MEAN_MOTION_DDOT>0</MEAN_MOTION_DDOT></tleParameters></data></segment></body></omm>
<omm id="CCSDS_OMM_VERS" version="2.0">
<header><CREATION_DATE/><ORIGINATOR/></header><body><segment><metadata><OBJECT_NAME>ONEWEB-0146</OBJECT_NAME><OBJECT_ID>2020-100AL</OBJECT_ID><CENTER_NAME>EARTH</CENTER_NAME><REF_FRAME>TEME</REF_FRAME><TIME_SYSTEM>UTC</TIME_SYSTEM><MEAN_ELEMENT_THEORY>SGP4</MEAN_ELEMENT_THEORY></metadata><data><meanElements><EPOCH>2024-10-03T13:03:17.921952</EPOCH><MEAN_MOTION>13.12444759</MEAN_MOTION><ECCENTRICITY>.000142</ECCENTRICITY><INCLINATION>87.8850</INCLINATION><RA_OF_ASC_NODE>114.4648</RA_OF_ASC_NODE><ARG_OF_PERICENTER>98.1933</ARG_OF_PERICENTER><MEAN_ANOMALY>261.9357</MEAN_ANOMALY></meanElements><tleParameters><EPHEMERIS_TYPE>0</EPHEMERIS_TYPE><CLASSIFICATION_TYPE>U</CLASSIFICATION_TYPE><NORAD_CAT_ID>47292</NORAD_CAT_ID><ELEMENT_SET_NO>999</ELEMENT_SET_NO><REV_AT_EPOCH>18313</REV_AT_EPOCH><BSTAR>.12591E-2</BSTAR><MEAN_MOTION_DOT>.466E-5</MEAN_MOTION_DOT><MEAN_MOTION_DDOT>0</MEAN_MOTION_DDOT></tleParameters></data></segment></body></omm>
<omm id="CCSDS_OMM_VERS" version="2.0">
<header><CREATION_DATE/><ORIGINATOR/></header><body><segment><metadata><OBJECT_NAME>ONEWEB-0147</OBJECT_NAME><OBJECT_ID>2020-100AM</OBJECT_ID><CENTER_NAME>EARTH</CENTER_NAME><REF_FRAME>TEME</REF_FRAME><TIME_SYSTEM>UTC</TIME_SYSTEM><MEAN_ELEMENT_THEORY>SGP4</MEAN_ELEMENT_THEORY></metadata><data><meanElements><EPOCH>2024-10-03T14:04:02.946144</EPOCH><MEAN_MOTION>13.12442941</MEAN_MOTION><ECCENTRICITY>.000193</ECCENTRICITY><INCLINATION>87.8847</INCLINATION><RA_OF_ASC_NODE>114.4457</RA_OF_ASC_NODE><ARG_OF_PERICENTER>87.2822</ARG_OF_PERICENTER><MEAN_ANOMALY>272.8527</MEAN_ANOMALY></meanElements><tleParameters><EPHEMERIS_TYPE>0</EPHEMERIS_TYPE><CLASSIFICATION_TYPE>U</CLASSIFICATION_TYPE><NORAD_CAT_ID>47293</NORAD_CAT_ID><ELEMENT_SET_NO>999</ELEMENT_SET_NO><REV_AT_EPOCH>18303</REV_AT_EPOCH><BSTAR>-.83556E-3</BSTAR><MEAN_MOTION_DOT>-.288E-5</MEAN_MOTION_DOT><MEAN_MOTION_DDOT>0</MEAN_MOTION_DDOT></tleParameters></data></segment></body></omm>
<omm id="CCSDS_OMM_VERS" version="2.0">
<header><CREATION_DATE/><ORIGINATOR/></header><body><segment><metadata><OBJECT_NAME>ONEWEB-0115</OBJECT_NAME><OBJECT_ID>2021-025A</OBJECT_ID><CENTER_NAME>EARTH</CENTER_NAME><REF_FRAME>TEME</REF_FRAME><TIME_SYSTEM>UTC</TIME_SYSTEM><MEAN_ELEMENT_THEORY>SGP4</MEAN_ELEMENT_THEORY></metadata><data><meanElements><EPOCH>2024-10-03T11:45:41.671296</EPOCH><MEAN_MOTION>13.13467997</MEAN_MOTION><ECCENTRICITY>.0001679</ECCENTRICITY><INCLINATION>87.8850</INCLINATION><RA_OF_ASC_NODE>83.9184</RA_OF_ASC_NODE><ARG_OF_PERICENTER>96.3268</ARG_OF_PERICENTER><MEAN_ANOMALY>263.8053</MEAN_ANOMALY></meanElements><tleParameters><EPHEMERIS_TYPE>0</EPHEMERIS_TYPE><CLASSIFICATION_TYPE>U</CLASSIFICATION_TYPE><NORAD_CAT_ID>48042</NORAD_CAT_ID><ELEMENT_SET_NO>999</ELEMENT_SET_NO><REV_AT_EPOCH>17198</REV_AT_EPOCH><BSTAR>-.44005E-3</BSTAR><MEAN_MOTION_DOT>-.148E-5</MEAN_MOTION_DOT><MEAN_MOTION_DDOT>0</MEAN_MOTION_DDOT></tleParameters></data></segment></body></omm>
<omm id="CCSDS_OMM_VERS" version="2.0">
<header><CREATION_DATE/><ORIGINATOR/></header><body><segment><metadata><OBJECT_NAME>ONEWEB-0152</OBJECT_NAME><OBJECT_ID>2021-025B</OBJECT_ID><CENTER_NAME>EARTH</CENTER_NAME><REF_FRAME>TEME</REF_FRAME><TIME_SYSTEM>UTC</TIME_SYSTEM><MEAN_ELEMENT_THEORY>SGP4</MEAN_ELEMENT_THEORY></metadata><data><meanElements><EPOCH>2024-10-03T12:03:57.917952</EPOCH><MEAN_MOTION>13.13470902</MEAN_MOTION><ECCENTRICITY>.0001716</ECCENTRICITY><INCLINATION>87.8857</INCLINATION><RA_OF_ASC_NODE>83.9182</RA_OF_ASC_NODE><ARG_OF_PERICENTER>95.1446</ARG_OF_PERICENTER><MEAN_ANOMALY>264.9879</MEAN_ANOMALY></meanElements><tleParameters><EPHEMERIS_TYPE>0</EPHEMERIS_TYPE><CLASSIFICATION_TYPE>U</CLASSIFICATION_TYPE><NORAD_CAT_ID>48043</NORAD_CAT_ID><ELEMENT_SET_NO>999</ELEMENT_SET_NO><REV_AT_EPOCH>17194</REV_AT_EPOCH><BSTAR>-.40731E-3</BSTAR><MEAN_MOTION_DOT>-.136E-5</MEAN_MOTION_DOT><MEAN_MOTION_DDOT>0</MEAN_MOTION_DDOT></tleParameters></data></segment></body></omm>
<omm id="CCSDS_OMM_VERS" version="2.0">
<header><CREATION_DATE/><ORIGINATOR/></header><body><segment><metadata><OBJECT_NAME>ONEWEB-0153</OBJECT_NAME><OBJECT_ID>2021-025C</OBJECT_ID><CENTER_NAME>EARTH</CENTER_NAME><REF_FRAME>TEME</REF_FRAME><TIME_SYSTEM>UTC</TIME_SYSTEM><MEAN_ELEMENT_THEORY>SGP4</MEAN_ELEMENT_THEORY></metadata><data><meanElements><EPOCH>2024-10-03T11:31:58.109088</EPOCH><MEAN_MOTION>13.13470390</MEAN_MOTION><ECCENTRICITY>.0001649</ECCENTRICITY><INCLINATION>87.8861</INCLINATION><RA_OF_ASC_NODE>83.9132</RA_OF_ASC_NODE><ARG_OF_PERICENTER>89.1637</ARG_OF_PERICENTER><MEAN_ANOMALY>270.9681</MEAN_ANOMALY></meanElements><tleParameters><EPHEMERIS_TYPE>0</EPHEMERIS_TYPE><CLASSIFICATION_TYPE>U</CLASSIFICATION_TYPE><NORAD_CAT_ID>48044</NORAD_CAT_ID><ELEMENT_SET_NO>999</ELEMENT_SET_NO><REV_AT_EPOCH>17193</REV_AT_EPOCH><BSTAR>-.23724E-4</BSTAR><MEAN_MOTION_DOT>.4E-7</MEAN_MOTION_DOT><MEAN_MOTION_DDOT>0</MEAN_MOTION_DDOT></tleParameters></data></segment></body></omm>
<omm id="CCSDS_OMM_VERS" version="2.0">
<header><CREATION_DATE/><ORIGINATOR/></header><body><segment><metadata><OBJECT_NAME>ONEWEB-0154</OBJECT_NAME><OBJECT_ID>2021-025D</OBJECT_ID><CENTER_NAME>EARTH</CENTER_NAME><REF_FRAME>TEME</REF_FRAME><TIME_SYSTEM>UTC</TIME_SYSTEM><MEAN_ELEMENT_THEORY>SGP4</MEAN_ELEMENT_THEORY></metadata><data><meanElements><EPOCH>2024-10-03T13:17:07.455264</EPOCH><MEAN_MOTION>13.13472624</MEAN_MOTION><ECCENTRICITY>.0001714</ECCENTRICITY><INCLINATION>87.8856</INCLINATION><RA_OF_ASC_NODE>83.9067</RA_OF_ASC_NODE><ARG_OF_PERICENTER>92.5968</ARG_OF_PERICENTER><MEAN_ANOMALY>267.5357</MEAN_ANOMALY></meanElements><tleParameters><EPHEMERIS_TYPE>0</EPHEMERIS_TYPE><CLASSIFICATION_TYPE>U</CLASSIFICATION_TYPE><NORAD_CAT_ID>48045</NORAD_CAT_ID><ELEMENT_SET_NO>999</ELEMENT_SET_NO><REV_AT_EPOCH>17190</REV_AT_EPOCH><BSTAR>.54213E-3</BSTAR><MEAN_MOTION_DOT>.211E-5</MEAN_MOTION_DOT><MEAN_MOTION_DDOT>0</MEAN_MOTION_DDOT></tleParameters></data></segment></body></omm>

</ndm>
