ONEWEB-0144             
1 47290U 20100AJ  24277.57640975 -.00000319  00000+0 -92273-3 0  9990
2 47290  87.8847 114.4491 0001864  75.8972 284.2364 13.12443110183031
ONEWEB-0145             
1 47291U 20100AK  24277.54721840  .00000447  00000+0  12079-2 0  9994
2 47291  87.8851 114.4797 0001740  79.7676 280.3649 13.12443836183222
ONEWEB-0146             
1 47292U 20100AL  24277.54395743  .00000466  00000+0  12591-2 0  9994
2 47292  87.8850 114.4648 0001420  98.1933 261.9357 13.12444759183139
ONEWEB-0147             
1 47293U 20100AM  24277.58614521 -.00000288  00000+0 -83556-3 0  9991
2 47293  87.8847 114.4457 0001930  87.2822 272.8527 13.12442941183036
ONEWEB-0115             
1 48042U 21025A   24277.49006564 -.00000148  00000+0 -44005-3 0  9994
2 48042  87.8850  83.9184 0001679  96.3268 263.8053 13.13467997171989
ONEWEB-0152             
1 48043U 21025B   24277.50275368 -.00000136  00000+0 -40731-3 0  9996
2 48043  87.8857  83.9182 0001716  95.1446 264.9879 13.13470902171946
ONEWEB-0153             
1 48044U 21025C   24277.48053367  .00000004  00000+0 -23724-4 0  9994
2 48044  87.8861  83.9132 0001649  89.1637 270.9681 13.13470390171935
ONEWEB-0154             
1 48045U 21025D   24277.55355851  .00000211  00000+0  54213-3 0  9991
2 48045  87.8856  83.9067 0001714  92.5968 267.5357 13.13472624171906
